42P/Neujmin,e,3.9915,150.1747,147.2360,4.873439,0.0916117,0.58490604,243.9112,07/27.0/2022,2000,g 13.0,6.0
# From MPEC 2022-C56
43P/Wolf-Harrington,e,9.3327,244.0594,224.0961,4.319002,0.1098067,0.43525825,238.5008,07/27.0/2022,2000,g  8.0,6.0
# From MPEC 2022-O08
44P/Reinmuth,e,5.8956,286.4499,58.0762,3.691943,0.1389382,0.42778257,13.1714,07/27.0/2022,2000,g  8.3,6.0
# From MPEC 2022-O01
45P/Honda-Mrkos-Pajdusakova,e,4.3227,87.7023,327.9085,3.054992,0.1845818,0.81760481,16.8059,07/27.0/2022,2000,g 13.5,8.0
# From MPEC 2021-O56
46P/Wirtanen,e,11.7475,82.1586,356.3270,3.091788,0.1812966,0.65856004,239.8649,07/27.0/2022,2000,g 14.0,6.0
# From MPEC 2022-HC2
47P/Ashbrook-Jackson,e,13.0414,356.9216,357.7086,4.122701,0.1177420,0.31868054,220.1227,07/27.0/2022,2000,g  1.0,11.2
# From MPEC 2021-F20
48P/Johnson,e,12.2025,110.1076,216.7151,3.501024,0.1504567,0.42730814,217.1993,07/27.0/2022,2000,g 12.4,4.0
# From MPEC 2021-F20
49P/Arend-Rigaux,e,19.0486,118.7938,332.9209,3.569615,0.1461410,0.59839846,215.4496,07/27.0/2022,2000,g 13.4,4.0
# From MPEC 2015-S97
50P/Arend,e,19.1006,355.1784,49.3273,4.087911,0.1192482,0.52946074,281.7816,07/27.0/2022,2000,g  9.5,6.0
# From NK 3014
51P-A/Harrington,e,5.4259,83.6741,269.2604,3.709008,0.1379804,0.54365370,350.4905,07/27.0/2022,2000,g 10.0,8.0
# From NK 3013
51P-D/Harrington,e,5.4266,83.6589,269.3009,3.708166,0.1380274,0.54360874,350.7842,07/27.0/2022,2000,g 16.0,8.0
# From MPEC 2022-L66
52P/Harrington-Abell,e,10.2314,336.8365,139.5756,3.864397,0.1297422,0.54017842,38.2517,07/27.0/2022,2000,g 13.5,6.0
# From MPC100283
53P/Van Biesbroeck,e,6.6094,148.8122,134.5094,5.430544,0.0778824,0.55102209,177.5047,07/27.0/2022,2000,g  7.7,4.8
# From MPC 89011
54P/de Vico-Swift-NEAT,e,6.0647,358.8172,1.8436,3.789632,0.1336006,0.42640487,257.1761,07/27.0/2022,2000,g  9.0,4.0
# From MPC 31070
55P/Tempel-Tuttle,e,162.4824,235.4148,172.4783,10.35716,0.0295694,0.90558474,264.8113,07/27.0/2022,2000,g  9.0,4.0
# From MPC101100
56P/Slaughter-Burnham,e,8.1609,345.9930,44.0039,5.067059,0.0864112,0.50826294,189.7877,07/27.0/2022,2000,g  8.5,6.0
# From MPEC 2022-M88
57P/duToit-Neujmin-Delporte,e,2.8522,188.7709,115.1989,3.445583,0.1541026,0.50097278,43.5636,07/27.0/2022,2000,g 12.5,6.0
# From MPEC 2021-O56
58P/Jackson-Neujmin,e,13.1087,159.0746,200.5185,4.087227,0.1192782,0.66281479,94.2613,07/27.0/2022,2000,g 15.5,6.0
# From MPEC 2021-F20
59P/Kearns-Kwee,e,9.3424,312.8115,127.5034,4.484421,0.1037874,0.47576301,146.2421,07/27.0/2022,2000,g  7.0,6.0
# From MPEC 2021-F20
60P/Tsuchinshan,e,3.5818,267.4710,216.9861,3.525433,0.1488968,0.53371242,197.6678,07/27.0/2022,2000,g 11.5,6.0
# From MPEC 2022-O01
61P/Shajn-Schaldach,e,5.9997,162.9667,221.6828,3.692331,0.1389163,0.42428045,347.6537,07/27.0/2022,2000,g  6.0,10.0
# From MPC109147
62P/Tsuchinshan,e,4.7361,68.7896,47.3399,3.365825,0.1596124,0.62566116,277.6694,07/27.0/2022,2000,g  8.0,10.0
# From MPC 84320
63P/Wild,e,19.7298,358.0191,169.0213,5.609970,0.0741760,0.64928185,252.8431,07/27.0/2022,2000,g 10.5,6.0
# From MPEC 2021-F20
64P/Swift-Gehrels,e,8.9489,299.9464,97.1118,4.452788,0.1048953,0.68849077,142.6556,07/27.0/2022,2000,g 13.4,4.0
# From MPEC 2022-K19
65P/Gunn,e,9.1764,61.9960,213.9046,3.887991,0.1285630,0.24874001,224.2442,07/27.0/2022,2000,g  5.0,6.0
# From MPEC 2021-F20
66P/duToit,e,18.6400,21.7858,257.4674,6.069616,0.0659117,0.78616369,100.8803,07/27.0/2022,2000,g 15.0,4.0
# From MPEC 2022-M21
67P/Churyumov-Gerasimenko,e,3.8718,36.3302,22.1437,3.456612,0.1533657,0.64977630,40.9359,07/27.0/2022,2000,g 11.0,4.0
# From MPEC 2022-H04
68P/Klemola,e,11.1116,175.0450,153.2201,4.957532,0.0892906,0.63744193,88.4748,07/27.0/2022,2000,g 12.7,4.0
# From MPC114607
69P/Taylor,e,22.0406,104.8117,343.3954,3.885311,0.1286961,0.41357408,157.8780,07/27.0/2022,2000,g  9.5,12.0
# From MPEC 2022-O08
70P/Kojima,e,6.5977,119.2643,1.8130,3.677975,0.1397304,0.45383829,37.1570,07/27.0/2022,2000,g 11.0,6.0
# From MPEC 2022-M88
71P/Clark,e,9.4377,59.3949,209.0671,3.138990,0.1772226,0.49386051,328.1360,07/27.0/2022,2000,g  9.8,6.0
# From MPC 89011
72P/Denning-Fujikawa,e,10.9482,26.7001,346.7182,4.308537,0.1102070,0.81865076,324.3055,07/27.0/2022,2000,g 17.5,10.0
# From MPEC 2022-O08
73P/Schwassmann-Wachmann,e,11.2278,69.6099,199.4892,3.092068,0.1812719,0.68533462,354.5995,07/27.0/2022,2000,g 11.5,6.0
# From MPC106348
73P-T/Schwassmann-Wachmann,e,11.2298,69.6129,199.4688,3.093545,0.1811421,0.68553382,354.3476,07/27.0/2022,2000,g 11.5,6.0
# From MPEC 2022-L66
74P/Smirnova-Chernykh,e,6.1301,57.8606,133.9547,4.529965,0.1022261,0.10767757,155.0920,07/27.0/2022,2000,g  5.0,6.0
# From MPEC 2022-K19
76P/West-Kohoutek-Ikemura,e,30.4737,84.1056,359.9374,3.471122,0.1524050,0.53849721,153.1407,07/27.0/2022,2000,g  8.0,12.0
# From MPEC 2022-M21
77P/Longmore,e,24.3187,14.7687,196.7626,3.623586,0.1428882,0.35187544,324.2474,07/27.0/2022,2000,g  7.0,8.0
# From MPEC 2021-O56
78P/Gehrels,e,6.2556,210.5156,192.6344,3.737523,0.1364043,0.46268044,165.1015,07/27.0/2022,2000,g  5.5,8.0
# From MPC 94675
79P/du Toit-Hartley,e,3.1482,280.5259,281.7797,2.943394,0.1951783,0.61899127,275.9877,07/27.0/2022,2000,g 16.0,4.0
# From MPEC 2014-P41
80P/Peters-Hartley,e,29.9223,259.7990,339.2473,4.024339,0.1220850,0.59861902,343.5348,07/27.0/2022,2000,g  9.0,4.0
# From MPEC 2022-H30
81P/Wild,e,3.2366,136.0988,41.6394,3.453617,0.1535652,0.53718215,338.2493,07/27.0/2022,2000,g  7.0,6.0
# From MPC133426
82P/Gehrels,e,1.1291,239.3179,226.4300,4.133815,0.1172675,0.12187599,175.2909,07/27.0/2022,2000,g 15.0,4.0
# From MPEC 2020-FB5
84P/Giclas,e,7.5505,108.1545,281.6042,3.549677,0.1473740,0.51600311,115.3746,07/27.0/2022,2000,g  9.5,8.0
# From MPEC 2022-K19
86P/Wild,e,15.4752,72.3549,179.4440,3.601358,0.1442131,0.37222002,24.4143,07/27.0/2022,2000,g 11.0,6.0
# From MPEC 2020-SI8
87P/Bus,e,2.8447,180.7284,27.3361,3.461782,0.1530222,0.40216478,121.2518,07/27.0/2022,2000,g  7.2,10.0
# From MPEC 2022-ED3
88P/Howell,e,4.3826,56.6749,235.9297,3.105771,0.1800736,0.56390253,120.3942,07/27.0/2022,2000,g 11.0,6.0
# From MPC100283
89P/Russell,e,12.0708,41.3519,250.3949,3.753686,0.1355243,0.40827581,277.5385,07/27.0/2022,2000,g 11.5,6.0
# From MPEC 2022-K19
90P/Gehrels,e,9.6512,13.2054,29.0507,6.051180,0.0662131,0.51081493,123.2976,07/27.0/2022,2000,g  8.5,6.0
# From MPEC 2021-S45
91P/Russell,e,14.1008,247.2182,355.6488,3.904085,0.1277689,0.33332411,79.5799,07/27.0/2022,2000,g  7.5,6.0
# From MPEC 2014-J58
92P/Sanguin,e,19.5081,181.3616,163.7950,5.343257,0.0797985,0.66106107,215.3859,07/27.0/2022,2000,g 12.0,6.0
# From NK 2707
93P/Lovas,e,12.2034,339.6426,74.8191,4.380703,0.1074950,0.61333156,212.0712,07/27.0/2022,2000,g  9.0,4.0
# From MPEC 2021-Y10
94P/Russell,e,6.1880,70.8580,92.4357,3.508327,0.1499871,0.36522033,315.2807,07/27.0/2022,2000,g  9.0,6.0
# From MPC 75717
95P/Chiron,e,6.9211,209.2988,339.5384,13.71114,0.0194130,0.37628375,188.5781,07/27.0/2022,2000,g  6.5,2.0
# From MPEC 2017-T14
96P/Machholz,e,57.5063,93.9571,14.7488,3.029977,0.1868723,0.96157694,324.8514,07/27.0/2022,2000,g  9.0,4.0
# From MPEC 2022-C56
97P/Metcalf-Brewington,e,17.9520,184.0770,229.9805,4.760042,0.0949048,0.46002855,15.3192,07/27.0/2022,2000,g  5.5,6.0
# From MPEC 2021-W31
98P/Takamizawa,e,10.5606,114.6860,157.8244,3.794801,0.1333277,0.56222123,75.7703,07/27.0/2022,2000,g  9.0,8.0
# From MPEC 2022-O08
99P/Kowal,e,4.3398,28.1014,174.9054,6.104150,0.0653531,0.22903823,6.9027,07/27.0/2022,2000,g  4.5,6.0
# From MPEC 2022-O01
100P/Hartley,e,25.5661,37.6871,181.9737,3.432138,0.1550091,0.41213583,357.6815,07/27.0/2022,2000,g  9.0,8.0
# From MPEC 2022-K19
101P/Chernykh,e,5.0516,116.2160,277.7375,5.807059,0.0704320,0.59631237,65.2237,07/27.0/2022,2000,g 10.0,4.8
# From MPEC 2022-C56
102P/Shoemaker,e,25.8840,339.3664,20.6130,3.815283,0.1322555,0.45717916,72.7950,07/27.0/2022,2000,g  6.5,8.0
# From MPEC 2018-HA5
103P/Hartley,e,13.6092,219.7466,181.2892,3.475311,0.1521295,0.69365609,292.6741,07/27.0/2022,2000,g  8.5,8.0
# From MPEC 2022-O08
104P/Kowal,e,5.7019,207.2074,227.2526,3.208082,0.1715283,0.66553022,33.6832,07/27.0/2022,2000,g 16.0,4.0
# From MPC109147
105P/Singer Brewster,e,9.1685,192.3976,46.4619,3.468802,0.1525579,0.40895463,221.0003,07/27.0/2022,2000,g 11.5,6.0
# From MPEC 2022-GA9
106P/Schuster,e,19.5363,48.8765,353.6968,3.764347,0.1349490,0.59388137,46.1772,07/27.0/2022,2000,g 14.0,4.8
# From MPEC 2015-M77
107P/Wilson-Harrington,e,2.7992,266.7780,95.4410,2.625007,0.2317439,0.63175804,353.3574,07/27.0/2022,2000,g  9.0,4.0
# From MPEC 2022-GA9
108P/Ciffreo,e,11.4362,50.2833,354.4499,3.739753,0.1362824,0.55601660,43.5904,07/27.0/2022,2000,g  8.0,12.0
# From  105, 420
109P/Swift-Tuttle,e,113.8786,139.1235,153.0035,26.18072,0.0073575,0.96262660,79.6156,07/27.0/2022,2000,g  4.0,6.0
# From MPEC 2022-M88
110P/Hartley,e,11.7051,287.5304,167.4504,3.603429,0.1440887,0.31853431,40.5863,07/27.0/2022,2000,g  1.0,12.0
# From MPC 75718
111P/Helin-Roman-Crockett,e,4.2260,89.7592,1.0136,4.149822,0.1165896,0.10659720,47.3583,07/27.0/2022,2000,g  5.0,8.0
# From MPEC 2021-S45
112P/Urata-Niijima,e,24.2088,31.8324,21.4672,3.524806,0.1489365,0.59032982,133.9934,07/27.0/2022,2000,g 14.0,6.0
# From MPEC 2022-D36
113P/Spitaler,e,5.2901,306.6770,115.5187,3.690812,0.1390021,0.41972216,7.7229,07/27.0/2022,2000,g 13.5,4.0
# From MPEC 2022-K19
114P/Wiseman-Skiff,e,18.2820,271.0322,172.7451,3.543595,0.1477535,0.55514568,136.6427,07/27.0/2022,2000,g 11.5,6.0
# From MPEC 2021-UA9
115P/Maury,e,11.6772,176.0062,120.9985,4.271978,0.1116248,0.51823223,81.2158,07/27.0/2022,2000,g 10.5,6.0
# From MPEC 2022-O08
116P/Wild,e,3.6034,20.9802,173.2892,3.490358,0.1511469,0.37054648,1.5248,07/27.0/2022,2000,g  2.5,10.0
# From MPEC 2022-O08
117P/Helin-Roman-Alu,e,8.7040,58.8417,222.9529,4.082661,0.1194783,0.25548231,2.2899,07/27.0/2022,2000,g  2.5,8.0
# From MPEC 2021-TD0
118P/Shoemaker-Levy,e,10.0943,142.0873,314.8401,3.346807,0.1609749,0.45347921,340.6032,07/27.0/2022,2000,g 12.0,4.0
# From MPEC 2021-UA9
